[{"OBJECT_NAME":"MUSAT-2","OBJECT_ID":"2024-043B","EPOCH":"2026-03-09T22:04:01.255008","MEAN_MOTION":15.07177436,"ECCENTRICITY":0.0006495,"INCLINATION":97.8438,"RA_OF_ASC_NODE":205.4399,"ARG_OF_PERICENTER":314.3478,"MEAN_ANOMALY":45.7216,"EPHEMERIS_TYPE":0,"CLASSIFICATION_TYPE":"U","NORAD_CAT_ID":59099,"ELEMENT_SET_NO":999,"REV_AT_EPOCH":11013,"BSTAR":0.00067214198,"MEAN_MOTION_DOT":0.00010059,"MEAN_MOTION_DDOT":0},{"OBJECT_NAME":"STARLINK-34802","OBJECT_ID":"2025-165M","EPOCH":"2026-03-09T17:13:32.863008","MEAN_MOTION":15.05652759,"ECCENTRICITY":6.401e-5,"INCLINATION":97.6015,"RA_OF_ASC_NODE":147.2402,"ARG_OF_PERICENTER":228.9415,"MEAN_ANOMALY":131.1756,"EPHEMERIS_TYPE":0,"CLASSIFICATION_TYPE":"U","NORAD_CAT_ID":65067,"ELEMENT_SET_NO":999,"REV_AT_EPOCH":3479,"BSTAR":0.00028862988,"MEAN_MOTION_DOT":4.107e-5,"MEAN_MOTION_DDOT":0}]
